NORAD_CAT_ID,OBJECT_NAME,OBJECT_TYPE,EPOCH,MEAN_MOTION,ECCENTRICITY,INCLINATION,RA_OF_ASC_NODE,ARG_OF_PERICENTER,MEAN_ANOMALY,BSTAR,MEAN_MOTION_DOT,MEAN_MOTION_DDOT,TLE_LINE0,TLE_LINE1,TLE_LINE2,SEMIMAJOR_AXIS,PERIOD,APOGEE,PERIGEE,DECAYED
52497.0,STARLINK-3884,PAYLOAD,2024-04-03 08:38:27,15.08846258,0.0001294,53.2182,335.4682,83.7788,276.3352,3.0402e-05,1.96e-06,0.0,0 STARLINK-3884,1 52497U 22049AY  24094.36004478  .00000196  00000-0  30402-4 0  9994,2 52497  53.2182 335.4682 0001294  83.7788 276.3352 15.08846258105919,6917.861,95.437,540.621,538.831,0.0
52497.0,STARLINK-3884,PAYLOAD,2024-04-03 22:56:56,15.08842476,0.0001444,53.2191,332.7943,101.1807,258.9348,9.7137e-05,1.258e-05,0.0,0 STARLINK-3884,1 52497U 22049AY  24094.95620669  .00001258  00000-0  97137-4 0  9993,2 52497  53.2191 332.7943 0001444 101.1807 258.9348 15.08842476106003,6917.873,95.437,540.737,538.739,0.0
52497.0,STARLINK-3884,PAYLOAD,2024-04-04 08:29:15,15.0884086,0.0001363,53.2184,331.0105,97.9184,262.1963,3.0706e-05,2.01e-06,0.0,0 STARLINK-3884,1 52497U 22049AY  24095.35364711  .00000201  00000-0  30706-4 0  9997,2 52497  53.2184 331.0105 0001363  97.9184 262.1963 15.08840860106068,6917.878,95.438,540.686,538.8,0.0
52497.0,STARLINK-3884,PAYLOAD,2024-04-04 19:36:57,15.08836088,0.0001465,53.2193,328.9296,107.9987,252.1165,7.1696e-05,8.53e-06,0.0,0 STARLINK-3884,1 52497U 22049AY  24095.81733357  .00000853  00000-0  71696-4 0  9990,2 52497  53.2193 328.9296 0001465 107.9987 252.1165 15.08836088106295,6917.892,95.438,540.771,538.744,0.0
52497.0,STARLINK-3884,PAYLOAD,2024-04-04 21:12:20,15.08836351,0.0001465,53.2194,328.6323,107.8105,252.3047,6.8632e-05,8.04e-06,0.0,0 STARLINK-3884,1 52497U 22049AY  24095.88357340  .00000804  00000-0  68632-4 0  9993,2 52497  53.2194 328.6323 0001465 107.8105 252.3047 15.08836351106143,6917.892,95.438,540.77,538.743,0.0
52497.0,STARLINK-3884,PAYLOAD,2024-04-05 08:20:02,15.08840716,0.0001418,53.2191,326.5506,99.9026,260.2127,9.5556e-05,1.233e-05,0.0,0 STARLINK-3884,1 52497U 22049AY  24096.34725067  .00001233  00000-0  95556-4 0  9992,2 52497  53.2191 326.5506 0001418  99.9026 260.2127 15.08840716106216,6917.878,95.438,540.724,538.762,0.0
52497.0,STARLINK-3884,PAYLOAD,2024-04-05 19:27:43,15.08846006,0.0001376,53.2189,324.4687,99.4624,260.6524,0.00013033,1.787e-05,0.0,0 STARLINK-3884,1 52497U 22049AY  24096.81092541  .00001787  00000-0  13033-3 0  9991,2 52497  53.2189 324.4687 0001376  99.4624 260.6524 15.08846006106440,6917.862,95.437,540.679,538.775,0.0
52497.0,STARLINK-3884,PAYLOAD,2024-04-05 21:03:07,15.08847014,0.000137,53.2189,324.1713,98.6555,261.4592,0.00012993,1.781e-05,0.0,0 STARLINK-3884,1 52497U 22049AY  24096.87716476  .00001781  00000-0  12993-3 0  9995,2 52497  53.2189 324.1713 0001370  98.6555 261.4592 15.08847014106292,6917.859,95.437,540.672,538.776,0.0
52497.0,STARLINK-3884,PAYLOAD,2024-04-06 08:10:49,15.08838607,0.0001427,53.2166,322.087,83.6169,276.4985,1.4105e-05,-6.3e-07,0.0,0 STARLINK-3884,1 52497U 22049AY  24097.34084864 -.00000063  00000-0  14105-4 0  9998,2 52497  53.2166 322.0870 0001427  83.6169 276.4985 15.08838607106522,6917.885,95.438,540.737,538.762,0.0
52497.0,STARLINK-3884,PAYLOAD,2024-04-06 14:32:22,15.08837157,0.0001594,53.2176,320.8983,81.9353,278.182,6.5144e-05,7.49e-06,0.0,0 STARLINK-3884,1 52497U 22049AY  24097.60581096  .00000749  00000-0  65144-4 0  9995,2 52497  53.2176 320.8983 0001594  81.9353 278.1820 15.08837157106408,6917.889,95.438,540.857,538.651,0.0
52497.0,STARLINK-3884,PAYLOAD,2024-04-06 22:29:17,15.0883548,0.0001324,53.2172,319.4122,81.5199,278.5943,-4.0943e-06,-3.53e-06,0.0,0 STARLINK-3884,1 52497U 22049AY  24097.93701226 -.00000353  00000-0 -40943-5 0  9994,2 52497  53.2172 319.4122 0001324  81.5199 278.5943 15.08835480106450,6917.894,95.438,540.675,538.843,0.0
52497.0,STARLINK-3884,PAYLOAD,2024-04-07 08:01:36,15.08839862,0.0001346,53.2175,317.6282,81.0157,279.0988,6.9544e-05,8.19e-06,0.0,0 STARLINK-3884,1 52497U 22049AY  24098.33445140  .00000819  00000-0  69544-4 0  9991,2 52497  53.2175 317.6282 0001346  81.0157 279.0988 15.08839862106513,6917.881,95.438,540.677,538.815,0.0
52497.0,STARLINK-3884,PAYLOAD,2024-04-07 20:44:41,15.08843856,0.0001259,53.217,315.2491,79.4224,280.691,6.215e-05,7.01e-06,0.0,0 STARLINK-3884,1 52497U 22049AY  24098.86436954  .00000701  00000-0  62150-4 0  9998,2 52497  53.2170 315.2491 0001259  79.4224 280.6910 15.08843856106750,6917.869,95.437,540.605,538.863,0.0
52497.0,STARLINK-3884,PAYLOAD,2024-04-08 14:13:56,15.08839581,0.0001331,53.2175,311.9783,76.2447,283.8693,0.00017182,2.448e-05,0.0,0 STARLINK-3884,1 52497U 22049AY  24099.59301290  .00002448  00000-0  17182-3 0  9997,2 52497  53.2175 311.9783 0001331  76.2447 283.8693 15.08839581106703,6917.882,95.438,540.667,538.826,0.0
52497.0,STARLINK-3884,PAYLOAD,2024-04-08 23:46:14,15.08843549,0.0001312,53.2169,310.1932,80.7564,279.3576,0.00017026,2.423e-05,0.0,0 STARLINK-3884,1 52497U 22049AY  24099.99045078  .00002423  00000-0  17026-3 0  9990,2 52497  53.2169 310.1932 0001312  80.7564 279.3576 15.08843549106767,6917.87,95.437,540.642,538.827,0.0
52497.0,STARLINK-3884,PAYLOAD,2024-04-09 20:26:15,15.08842277,0.0001418,53.2178,306.3258,90.7769,269.3385,2.3684e-05,8.9e-07,0.0,0 STARLINK-3884,1 52497U 22049AY  24100.85157091  .00000089  00000-0  23684-4 0  9991,2 52497  53.2178 306.3258 0001418  90.7769 269.3385 15.08842277107057,6917.873,95.437,540.719,538.757,0.0
52497.0,STARLINK-3884,PAYLOAD,2024-04-10 13:55:30,15.08836832,0.0001461,53.2159,303.0543,92.5721,267.5438,1.5696e-05,-3.8e-07,0.0,0 STARLINK-3884,1 52497U 22049AY  24101.58021433 -.00000038  00000-0  15696-4 0  9991,2 52497  53.2159 303.0543 0001461  92.5721 267.5438 15.08836832107007,6917.89,95.438,540.766,538.744,0.0
52497.0,STARLINK-3884,PAYLOAD,2024-04-10 20:17:03,15.08839643,0.000135,53.2183,301.8681,90.2427,269.8719,3.5621e-05,2.79e-06,0.0,0 STARLINK-3884,1 52497U 22049AY  24101.84517463  .00000279  00000-0  35621-4 0  9999,2 52497  53.2183 301.8681 0001350  90.2427 269.8719 15.08839643107042,6917.881,95.438,540.68,538.813,0.0
52497.0,STARLINK-3884,PAYLOAD,2024-04-10 23:27:49,15.08841076,0.000132,53.2177,301.2724,89.9023,270.2121,4.5714e-05,4.4e-06,0.0,0 STARLINK-3884,1 52497U 22049AY  24101.97765340  .00000440  00000-0  45714-4 0  9996,2 52497  53.2177 301.2724 0001320  89.9023 270.2121 15.08841076107227,6917.877,95.437,540.655,538.829,0.0
52497.0,STARLINK-3884,PAYLOAD,2024-04-11 20:07:51,15.08777343,0.0001559,53.2176,297.4058,75.2858,284.8306,0.0009797,0.00015312,0.0,0 STARLINK-3884,1 52497U 22049AY  24102.83878748  .00015312  00000-0  97970-3 0  9993,2 52497  53.2176 297.4058 0001559  75.2858 284.8306 15.08777343107355,6918.072,95.442,541.015,538.858,0.0
52497.0,STARLINK-3884,PAYLOAD,2024-04-12 23:09:23,15.0884316,0.0001272,53.2176,292.3507,83.34,276.7737,0.00011225,1.499e-05,0.0,0 STARLINK-3884,1 52497U 22049AY  24103.96485424  .00001499  00000-0  11225-3 0  9993,2 52497  53.2176 292.3507 0001272  83.3400 276.7737 15.08843160107521,6917.871,95.437,540.616,538.856,0.0
52497.0,STARLINK-3884,PAYLOAD,2024-04-13 11:52:28,15.08840279,0.0001324,53.2176,289.9724,91.5568,268.5576,0.00010514,1.386e-05,0.0,0 STARLINK-3884,1 52497U 22049AY  24104.49477705  .00001386  00000-0  10514-3 0  9990,2 52497  53.2176 289.9724 0001324  91.5568 268.5576 15.08840279107447,6917.88,95.438,540.66,538.829,0.0
52497.0,STARLINK-3884,PAYLOAD,2024-04-13 19:49:24,15.08844499,0.0001279,53.2176,288.4843,80.4914,279.6223,6.7356e-05,7.84e-06,0.0,0 STARLINK-3884,1 52497U 22049AY  24104.82597538  .00000784  00000-0  67356-4 0  9992,2 52497  53.2176 288.4843 0001279  80.4914 279.6223 15.08844499107499,6917.867,95.437,540.616,538.847,0.0
52497.0,STARLINK-3884,PAYLOAD,2024-04-14 11:43:16,15.08835904,0.0001782,53.2185,285.5144,59.1145,301.0022,8.5713e-05,1.076e-05,0.0,0 STARLINK-3884,1 52497U 22049AY  24105.48838194  .00001076  00000-0  85713-4 0  9993,2 52497  53.2185 285.5144 0001782  59.1145 301.0022 15.08835904107756,6917.893,95.438,540.991,538.525,0.0
52497.0,STARLINK-3884,PAYLOAD,2024-04-14 19:40:11,15.08842079,0.0001828,53.2188,284.0257,81.9764,278.1435,7.0884e-05,8.4e-06,0.0,0 STARLINK-3884,1 52497U 22049AY  24105.81958064  .00000840  00000-0  70884-4 0  9990,2 52497  53.2188 284.0257 0001828  81.9764 278.1435 15.08842079107640,6917.874,95.437,541.004,538.474,0.0
52497.0,STARLINK-3884,PAYLOAD,2024-04-15 11:34:02,15.08844678,0.0001811,53.2187,281.0519,84.1429,275.977,8.0239e-05,9.89e-06,0.0,0 STARLINK-3884,1 52497U 22049AY  24106.48197895  .00000989  00000-0  80239-4 0  9990,2 52497  53.2187 281.0519 0001811  84.1429 275.9770 15.08844678107747,6917.866,95.437,540.984,538.478,0.0
52497.0,STARLINK-3884,PAYLOAD,2024-04-16 11:24:50,15.08840777,0.0001512,53.2158,276.5918,81.5186,278.5978,0.00027883,4.152e-05,0.0,0 STARLINK-3884,1 52497U 22049AY  24107.47557964  .00004152  00000-0  27883-3 0  9998,2 52497  53.2158 276.5918 0001512  81.5186 278.5978 15.08840777108056,6917.878,95.438,540.789,538.697,0.0
52497.0,STARLINK-3884,PAYLOAD,2024-04-16 14:35:36,15.08845401,0.0001429,53.2158,275.9968,78.1264,281.9888,0.00018275,2.622e-05,0.0,0 STARLINK-3884,1 52497U 22049AY  24107.60805709  .00002622  00000-0  18275-3 0  9991,2 52497  53.2158 275.9968 0001429  78.1264 281.9888 15.08845401107911,6917.864,95.437,540.717,538.74,0.0
52497.0,STARLINK-3884,PAYLOAD,2024-04-16 17:46:21,15.08857833,0.0001189,53.2166,275.3996,98.17,261.9427,0.00030705,4.605e-05,0.0,0 STARLINK-3884,1 52497U 22049AY  24107.74052927  .00004605  00000-0  30705-3 0  9997,2 52497  53.2166 275.3996 0001189  98.1700 261.9427 15.08857833108094,6917.826,95.436,540.513,538.868,0.0
52497.0,STARLINK-3884,PAYLOAD,2024-04-17 11:15:36,15.08845865,0.0001341,53.2146,272.1283,93.6791,266.4354,5.7236e-05,6.23e-06,0.0,0 STARLINK-3884,1 52497U 22049AY  24108.46917369  .00000623  00000-0  57236-4 0  9992,2 52497  53.2146 272.1283 0001341  93.6791 266.4354 15.08845865108200,6917.862,95.437,540.655,538.8,0.0
